start=new Date('2022-04-20T00:00:00.000Z').valueOf();
sats=[{"LAUNCH_DATE":"2021-11-13","MEAN_MOTION_DDOT":"0.0000000000000","MEAN_MOTION_DOT":"-0.00008614","PERIOD":"95.437","MEAN_ELEMENT_THEORY":"SGP4","ELEMENT_SET_NO":"999","TLE_LINE2":"2 49450  53.2175 114.2411 0002582  35.9028  37.3468 15.08851963  3577","NORAD_CAT_ID":"49450","ECCENTRICITY":"0.00025820","FILE":"3408368","SITE":"AFETR","EPHEMERIS_TYPE":"0","RCS_SIZE":"LARGE","INCLINATION":"53.2175","GP_ID":"201629576","REV_AT_EPOCH":"357","TLE_LINE1":"1 49450U 21104AU  22109.58334491 -.00008614  00000-0 -52354-3 0  9994","OBJECT_TYPE":"PAYLOAD","RA_OF_ASC_NODE":"114.2411","OBJECT_NAME":"STARLINK-3127","REF_FRAME":"TEME","ARG_OF_PERICENTER":"35.9028","EPOCH":"2022-04-19T14:00:01.000224","BSTAR":"-0.00052354000000","CENTER_NAME":"EARTH","OBJECT_ID":"2021-104AU","TIME_SYSTEM":"UTC","APOAPSIS":"541.495","DECAY_DATE":null,"SEMIMAJOR_AXIS":"6917.844","COUNTRY_CODE":"US","CLASSIFICATION_TYPE":"U","PERIAPSIS":"537.923","MEAN_MOTION":"15.08851963","MEAN_ANOMALY":"37.3468"},{"GP_ID":"201628324","INCLINATION":"53.2164","REV_AT_EPOCH":"356","ECCENTRICITY":"0.00025870","TLE_LINE2":"2 49451  53.2164 114.2137 0002587  27.9910 105.4112 15.08842432  3560","NORAD_CAT_ID":"49451","ELEMENT_SET_NO":"999","RCS_SIZE":"LARGE","SITE":"AFETR","FILE":"3408368","EPHEMERIS_TYPE":"0","MEAN_MOTION_DOT":"-0.00005224","MEAN_ELEMENT_THEORY":"SGP4","PERIOD":"95.437","LAUNCH_DATE":"2021-11-13","MEAN_MOTION_DDOT":"0.0000000000000","PERIAPSIS":"537.948","MEAN_ANOMALY":"105.4112","MEAN_MOTION":"15.08842432","SEMIMAJOR_AXIS":"6917.873","COUNTRY_CODE":"US","DECAY_DATE":null,"CLASSIFICATION_TYPE":"U","EPOCH":"2022-04-19T14:00:01.000224","BSTAR":"-0.00031029000000","APOAPSIS":"541.528","TIME_SYSTEM":"UTC","CENTER_NAME":"EARTH","OBJECT_ID":"2021-104AV","REF_FRAME":"TEME","RA_OF_ASC_NODE":"114.2137","TLE_LINE1":"1 49451U 21104AV  22109.58334491 -.00005224  00000-0 -31029-3 0  9995","OBJECT_TYPE":"PAYLOAD","OBJECT_NAME":"STARLINK-3125","ARG_OF_PERICENTER":"27.9910"},{"PERIOD":"95.437","MEAN_ELEMENT_THEORY":"SGP4","MEAN_MOTION_DOT":"-0.00007729","LAUNCH_DATE":"2021-11-13","MEAN_MOTION_DDOT":"0.0000000000000","REV_AT_EPOCH":"356","INCLINATION":"53.2152","GP_ID":"201628574","FILE":"3408368","EPHEMERIS_TYPE":"0","SITE":"AFETR","RCS_SIZE":"LARGE","TLE_LINE2":"2 49452  53.2152 114.2106 0002674  34.5289 173.5393 15.08852210  3566","ELEMENT_SET_NO":"999","NORAD_CAT_ID":"49452","ECCENTRICITY":"0.00026740","CENTER_NAME":"EARTH","OBJECT_ID":"2021-104AW","TIME_SYSTEM":"UTC","APOAPSIS":"541.558","EPOCH":"2022-04-19T14:00:01.000224","BSTAR":"-0.00046784000000","ARG_OF_PERICENTER":"34.5289","TLE_LINE1":"1 49452U 21104AW  22109.58334491 -.00007729  00000-0 -46784-3 0  9992","OBJECT_TYPE":"PAYLOAD","RA_OF_ASC_NODE":"114.2106","OBJECT_NAME":"STARLINK-3150","REF_FRAME":"TEME","MEAN_MOTION":"15.08852210","MEAN_ANOMALY":"173.5393","PERIAPSIS":"537.858","CLASSIFICATION_TYPE":"U","DECAY_DATE":null,"SEMIMAJOR_AXIS":"6917.843","COUNTRY_CODE":"US"},{"ECCENTRICITY":"0.00027080","TLE_LINE2":"2 49453  53.2161 114.2118 0002708  36.9060 136.4197 15.08862277  3565","ELEMENT_SET_NO":"999","NORAD_CAT_ID":"49453","RCS_SIZE":"LARGE","FILE":"3408368","EPHEMERIS_TYPE":"0","SITE":"AFETR","GP_ID":"201629326","INCLINATION":"53.2161","REV_AT_EPOCH":"356","MEAN_MOTION_DDOT":"0.0000000000000","LAUNCH_DATE":"2021-11-13","MEAN_MOTION_DOT":"-0.00005971","MEAN_ELEMENT_THEORY":"SGP4","PERIOD":"95.436","COUNTRY_CODE":"US","SEMIMAJOR_AXIS":"6917.812","DECAY_DATE":null,"CLASSIFICATION_TYPE":"U","PERIAPSIS":"537.804","MEAN_ANOMALY":"136.4197","MEAN_MOTION":"15.08862277","REF_FRAME":"TEME","OBJECT_NAME":"STARLINK-3129","OBJECT_TYPE":"PAYLOAD","TLE_LINE1":"1 49453U 21104AX  22109.58334491 -.00005971  00000-0 -35712-3 0  9999","RA_OF_ASC_NODE":"114.2118","ARG_OF_PERICENTER":"36.9060","BSTAR":"-0.00035712000000","EPOCH":"2022-04-19T14:00:01.000224","TIME_SYSTEM":"UTC","APOAPSIS":"541.551","OBJECT_ID":"2021-104AX","CENTER_NAME":"EARTH"},{"RA_OF_ASC_NODE":"114.2162","TLE_LINE1":"1 49454U 21104AY  22109.58334491 -.00006186  00000-0 -37079-3 0  9997","OBJECT_TYPE":"PAYLOAD","OBJECT_NAME":"STARLINK-3160","REF_FRAME":"TEME","ARG_OF_PERICENTER":"26.0021","EPOCH":"2022-04-19T14:00:01.000224","BSTAR":"-0.00037079000000","CENTER_NAME":"EARTH","OBJECT_ID":"2021-104AY","TIME_SYSTEM":"UTC","APOAPSIS":"542.135","DECAY_DATE":null,"SEMIMAJOR_AXIS":"6917.875","COUNTRY_CODE":"US","CLASSIFICATION_TYPE":"U","PERIAPSIS":"537.345","MEAN_MOTION":"15.08841861","MEAN_ANOMALY":"127.3838","LAUNCH_DATE":"2021-11-13","MEAN_MOTION_DDOT":"0.0000000000000","MEAN_MOTION_DOT":"-0.00006186","PERIOD":"95.437","MEAN_ELEMENT_THEORY":"SGP4","NORAD_CAT_ID":"49454","TLE_LINE2":"2 49454  53.2173 114.2162 0003462  26.0021 127.3838 15.08841861 25474","ELEMENT_SET_NO":"999","ECCENTRICITY":"0.00034620","FILE":"3407947","SITE":"AFETR","EPHEMERIS_TYPE":"0","RCS_SIZE":"LARGE","INCLINATION":"53.2173","GP_ID":"201594857","REV_AT_EPOCH":"2547"},{"SITE":"AFETR","FILE":"3408368","EPHEMERIS_TYPE":"0","RCS_SIZE":"LARGE","TLE_LINE2":"2 49455  53.2149 114.2103 0002585  35.8443 197.5760 15.08857441  3564","NORAD_CAT_ID":"49455","ELEMENT_SET_NO":"999","ECCENTRICITY":"0.00025850","REV_AT_EPOCH":"356","INCLINATION":"53.2149","GP_ID":"201628825","LAUNCH_DATE":"2021-11-13","MEAN_MOTION_DDOT":"0.0000000000000","PERIOD":"95.436","MEAN_ELEMENT_THEORY":"SGP4","MEAN_MOTION_DOT":"-0.00029696","CLASSIFICATION_TYPE":"U","DECAY_DATE":null,"SEMIMAJOR_AXIS":"6917.827","COUNTRY_CODE":"US","MEAN_MOTION":"15.08857441","MEAN_ANOMALY":"197.5760","PERIAPSIS":"537.904","ARG_OF_PERICENTER":"35.8443","RA_OF_ASC_NODE":"114.2103","TLE_LINE1":"1 49455U 21104AZ  22109.58334491 -.00029696  00000-0 -18544-2 0  9994","OBJECT_TYPE":"PAYLOAD","OBJECT_NAME":"STARLINK-3145","REF_FRAME":"TEME","CENTER_NAME":"EARTH","OBJECT_ID":"2021-104AZ","APOAPSIS":"541.480","TIME_SYSTEM":"UTC","EPOCH":"2022-04-19T14:00:01.000224","BSTAR":"-0.00185440000000"},{"SEMIMAJOR_AXIS":"6917.857","COUNTRY_CODE":"US","DECAY_DATE":null,"CLASSIFICATION_TYPE":"U","PERIAPSIS":"537.432","MEAN_ANOMALY":"164.6830","MEAN_MOTION":"15.08847715","REF_FRAME":"TEME","TLE_LINE1":"1 49456U 21104BA  22109.58334491 -.00006912  00000-0 -41644-3 0  9999","RA_OF_ASC_NODE":"114.2151","OBJECT_TYPE":"PAYLOAD","OBJECT_NAME":"STARLINK-3124","ARG_OF_PERICENTER":"28.6825","EPOCH":"2022-04-19T14:00:01.000224","BSTAR":"-0.00041644000000","TIME_SYSTEM":"UTC","APOAPSIS":"542.012","CENTER_NAME":"EARTH","OBJECT_ID":"2021-104BA","ECCENTRICITY":"0.00033100","ELEMENT_SET_NO":"999","TLE_LINE2":"2 49456  53.2171 114.2151 0003310  28.6825 164.6830 15.08847715 25463","NORAD_CAT_ID":"49456","RCS_SIZE":"LARGE","FILE":"3407940","EPHEMERIS_TYPE":"0","SITE":"AFETR","GP_ID":"201594968","INCLINATION":"53.2171","REV_AT_EPOCH":"2546","LAUNCH_DATE":"2021-11-13","MEAN_MOTION_DDOT":"0.0000000000000","MEAN_MOTION_DOT":"-0.00006912","MEAN_ELEMENT_THEORY":"SGP4","PERIOD":"95.437"},{"REF_FRAME":"TEME","OBJECT_NAME":"STARLINK-3132","TLE_LINE1":"1 49457U 21104BB  22109.58334491 -.00011234  00000-0 -68863-3 0  9995","OBJECT_TYPE":"PAYLOAD","RA_OF_ASC_NODE":"114.2123","ARG_OF_PERICENTER":"31.6023","BSTAR":"-0.00068863000000","EPOCH":"2022-04-19T14:00:01.000224","APOAPSIS":"541.471","TIME_SYSTEM":"UTC","OBJECT_ID":"2021-104BB","CENTER_NAME":"EARTH","COUNTRY_CODE":"US","SEMIMAJOR_AXIS":"6917.860","DECAY_DATE":null,"CLASSIFICATION_TYPE":"U","PERIAPSIS":"537.979","MEAN_ANOMALY":"221.7735","MEAN_MOTION":"15.08846579","MEAN_MOTION_DDOT":"0.0000000000000","LAUNCH_DATE":"2021-11-13","MEAN_MOTION_DOT":"-0.00011234","MEAN_ELEMENT_THEORY":"SGP4","PERIOD":"95.437","ECCENTRICITY":"0.00025240","TLE_LINE2":"2 49457  53.2155 114.2123 0002524  31.6023 221.7735 15.08846579  3568","ELEMENT_SET_NO":"999","NORAD_CAT_ID":"49457","RCS_SIZE":"LARGE","EPHEMERIS_TYPE":"0","FILE":"3408368","SITE":"AFETR","INCLINATION":"53.2155","GP_ID":"201629827","REV_AT_EPOCH":"356"},{"CLASSIFICATION_TYPE":"U","DECAY_DATE":null,"SEMIMAJOR_AXIS":"6917.885","COUNTRY_CODE":"US","MEAN_MOTION":"15.08838619","MEAN_ANOMALY":"104.9736","PERIAPSIS":"537.839","ARG_OF_PERICENTER":"27.0886","TLE_LINE1":"1 49458U 21104BC  22109.83334491  .00000179  00000-0  29367-4 0  9995","RA_OF_ASC_NODE":"113.0875","OBJECT_TYPE":"PAYLOAD","OBJECT_NAME":"STARLINK-3156","REF_FRAME":"TEME","CENTER_NAME":"EARTH","OBJECT_ID":"2021-104BC","TIME_SYSTEM":"UTC","APOAPSIS":"541.660","EPOCH":"2022-04-19T20:00:01.000224","BSTAR":"0.00002936700000","EPHEMERIS_TYPE":"0","FILE":"3408457","SITE":"AFETR","RCS_SIZE":"LARGE","ELEMENT_SET_NO":"999","TLE_LINE2":"2 49458  53.2160 113.0875 0002762  27.0886 104.9736 15.08838619 25514","NORAD_CAT_ID":"49458","ECCENTRICITY":"0.00027620","REV_AT_EPOCH":"2551","INCLINATION":"53.2160","GP_ID":"201632220","LAUNCH_DATE":"2021-11-13","MEAN_MOTION_DDOT":"0.0000000000000","PERIOD":"95.438","MEAN_ELEMENT_THEORY":"SGP4","MEAN_MOTION_DOT":"0.00000179"},{"MEAN_MOTION_DOT":"-0.00013671","PERIOD":"95.436","MEAN_ELEMENT_THEORY":"SGP4","MEAN_MOTION_DDOT":"0.0000000000000","LAUNCH_DATE":"2021-11-13","GP_ID":"201628325","INCLINATION":"53.2160","REV_AT_EPOCH":"356","ELEMENT_SET_NO":"999","TLE_LINE2":"2 49459  53.2160 114.2138 0002775  27.5528 245.7771 15.08859507  3565","NORAD_CAT_ID":"49459","ECCENTRICITY":"0.00027750","SITE":"AFETR","FILE":"3408368","EPHEMERIS_TYPE":"0","RCS_SIZE":"LARGE","BSTAR":"-0.00084193000000","EPOCH":"2022-04-19T14:00:01.000224","OBJECT_ID":"2021-104BD","CENTER_NAME":"EARTH","TIME_SYSTEM":"UTC","APOAPSIS":"541.605","OBJECT_NAME":"STARLINK-3141","TLE_LINE1":"1 49459U 21104BD  22109.58334491 -.00013671  00000-0 -84193-3 0  9998","OBJECT_TYPE":"PAYLOAD","RA_OF_ASC_NODE":"114.2138","REF_FRAME":"TEME","ARG_OF_PERICENTER":"27.5528","PERIAPSIS":"537.766","MEAN_MOTION":"15.08859507","MEAN_ANOMALY":"245.7771","DECAY_DATE":null,"COUNTRY_CODE":"US","SEMIMAJOR_AXIS":"6917.821","CLASSIFICATION_TYPE":"U"}];
